NORAD_CAT_ID,OBJECT_NAME,OBJECT_TYPE,EPOCH,MEAN_MOTION,ECCENTRICITY,INCLINATION,RA_OF_ASC_NODE,ARG_OF_PERICENTER,MEAN_ANOMALY,BSTAR,MEAN_MOTION_DOT,MEAN_MOTION_DDOT,TLE_LINE0,TLE_LINE1,TLE_LINE2,SEMIMAJOR_AXIS,PERIOD,APOGEE,PERIGEE,DECAYED
52612.0,STARLINK-4002,PAYLOAD,2022-12-31 00:11:42,15.08849746,0.0002082,53.2172,107.5927,36.721,323.3925,0.00025737,3.811e-05,0.0,0 STARLINK-4002,1 52612U 22052Q   22365.00812667  .00003811  00000-0  25737-3 0  9995,2 52612  53.2172 107.5927 0002082  36.7210 323.3925 15.08849746 35401,6917.851,95.437,541.156,538.275,0.0
52612.0,STARLINK-4002,PAYLOAD,2022-12-31 12:54:46,15.08853287,0.0002381,53.2174,105.213,33.5074,326.6069,0.00038225,5.803e-05,0.0,0 STARLINK-4002,1 52612U 22052Q   22365.53804009  .00005803  00000-0  38225-3 0  9993,2 52612  53.2174 105.2130 0002381  33.5074 326.6069 15.08853287 35117,6917.84,95.437,541.352,538.058,0.0
52612.0,STARLINK-4002,PAYLOAD,2022-12-31 16:05:33,15.08847883,0.0002982,53.2173,104.6204,29.4565,330.6595,0.00032991,4.967e-05,0.0,0 STARLINK-4002,1 52612U 22052Q   22365.67052614  .00004967  00000-0  32991-3 0  9999,2 52612  53.2173 104.6204 0002982  29.4565 330.6595 15.08847883 35133,6917.856,95.437,541.784,537.658,0.0
52612.0,STARLINK-4002,PAYLOAD,2023-01-01 00:02:29,15.08840366,0.0002373,53.2173,103.1315,32.9283,327.1856,0.00020627,2.996e-05,0.0,0 STARLINK-4002,1 52612U 22052Q   23001.00173195  .00002996  00000-0  20627-3 0  9995,2 52612  53.2173 103.1315 0002373  32.9283 327.1856 15.08840366 35556,6917.879,95.438,541.386,538.1030000000002,0.0
52612.0,STARLINK-4002,PAYLOAD,2023-01-01 12:45:36,15.08821668,0.0002266999999999,53.2174,100.7532,30.2693,329.843,-0.00013343,-2.410000000000001e-05,0.0,0 STARLINK-4002,1 52612U 22052Q   23001.53167500 -.00002410  00000-0 -13343-3 0  9996,2 52612  53.2174 100.7532 0002267  30.2693 329.8430 15.08821668 35639,6917.936,95.439,541.37,538.2330000000002,0.0
52612.0,STARLINK-4002,PAYLOAD,2023-01-01 15:56:22,15.0882454,0.0002295,53.2172,100.158,30.7215,329.3911,-0.00011633,-2.139e-05,0.0,0 STARLINK-4002,1 52612U 22052Q   23001.66415369 -.00002139  00000-0 -11633-3 0  9997,2 52612  53.2172 100.1580 0002295  30.7215 329.3911 15.08824540 35282,6917.928000000001,95.439,541.38,538.205,0.0
52612.0,STARLINK-4002,PAYLOAD,2023-01-01 23:53:18,15.08833787,0.0002387999999999,53.2177,98.6715,30.4283,329.6848,-5.6683e-05,-1.19e-05,0.0,0 STARLINK-4002,1 52612U 22052Q   23001.99534830 -.00001190  00000-0 -56683-4 0  9999,2 52612  53.2177  98.6715 0002388  30.4283 329.6848 15.08833787 35705,6917.899,95.438,541.4159999999998,538.112,0.0
52612.0,STARLINK-4002,PAYLOAD,2023-01-02 12:36:21,15.08850183,0.0002374,53.2176,96.2928,26.2005,333.9107,-5.4178e-05,-1.151e-05,0.0,0 STARLINK-4002,1 52612U 22052Q   23002.52525462 -.00001151  00000-0 -54178-4 0  9994,2 52612  53.2176  96.2928 0002374  26.2005 333.9107 15.08850183 35787,6917.849,95.437,541.357,538.072,0.0
52612.0,STARLINK-4002,PAYLOAD,2023-01-02 14:11:45,15.08845918,0.0002525999999999,53.2168,95.9953,26.7437,333.3685,6.377600000000001e-05,7.27e-06,0.0,0 STARLINK-4002,1 52612U 22052Q   23002.59149679  .00000727  00000-0  63776-4 0  9993,2 52612  53.2168  95.9953 0002526  26.7437 333.3685 15.08845918 35421,6917.861999999999,95.437,541.475,537.98,0.0
52612.0,STARLINK-4002,PAYLOAD,2023-01-03 12:27:09,15.08839986,0.000256,53.2163,91.8326,26.9645,333.1479,0.00014222,1.976e-05,0.0,0 STARLINK-4002,1 52612U 22052Q   23003.51886531  .00001976  00000-0  14222-3 0  9999,2 52612  53.2163  91.8326 0002560  26.9645 333.1479 15.08839986 35939,6917.88,95.438,541.516,537.974,0.0
52612.0,STARLINK-4002,PAYLOAD,2023-01-04 12:17:56,15.0884766,0.0002647,53.2167,87.37299999999998,29.3479,330.7661,0.00023971,3.53e-05,0.0,0 STARLINK-4002,1 52612U 22052Q   23004.51246486  .00003530  00000-0  23971-3 0  9998,2 52612  53.2167  87.3730 0002647  29.3479 330.7661 15.08847660 35710,6917.857,95.437,541.553,537.891,0.0
52612.0,STARLINK-4002,PAYLOAD,2023-01-05 04:11:48,15.08835438,0.0002858,53.2174,84.4,36.3473,323.7713,4.0231e-05,3.52e-06,0.0,0 STARLINK-4002,1 52612U 22052Q   23005.17487215  .00000352  00000-0  40231-4 0  9996,2 52612  53.2174  84.4000 0002858  36.3473 323.7713 15.08835438 36184,6917.894,95.438,541.736,537.7819999999998,0.0
52612.0,STARLINK-4002,PAYLOAD,2023-01-05 12:08:44,15.08832045,0.0002488,53.2146,82.9131,27.6811,332.4314,9.8225e-07,-2.73e-06,0.0,0 STARLINK-4002,1 52612U 22052Q   23005.50607476 -.00000273  00000-0  98225-6 0  9997,2 52612  53.2146  82.9131 0002488  27.6811 332.4314 15.08832045 35868,6917.905,95.438,541.491,538.049,0.0
52612.0,STARLINK-4002,PAYLOAD,2023-01-06 07:13:22,15.08847491,0.0002423,53.214,79.3444,31.5526,328.5611,0.00036957,5.600000000000001e-05,0.0,0 STARLINK-4002,1 52612U 22052Q   23006.30095238  .00005600  00000-0  36957-3 0  9992,2 52612  53.2140  79.3444 0002423  31.5526 328.5611 15.08847491 36357,6917.857,95.437,541.399,538.0459999999998,0.0
52612.0,STARLINK-4002,PAYLOAD,2023-01-06 15:10:17,15.08860944,0.0002397,53.2137,77.8574,32.9288,327.1853,0.00092029,0.00014397,0.0,0 STARLINK-4002,1 52612U 22052Q   23006.63214950  .00014397  00000-0  92029-3 0  9997,2 52612  53.2137  77.8574 0002397  32.9288 327.1853 15.08860944 36036,6917.816,95.436,541.34,538.023,0.0
52612.0,STARLINK-4002,PAYLOAD,2023-01-07 02:18:00,15.08823317,0.0002115,53.2135,75.77600000000002,33.1062,327.0062,-0.0004928999999999,-8.121e-05,0.0,0 STARLINK-4002,1 52612U 22052Q   23007.09583680 -.00008121  00000-0 -49290-3 0  9999,2 52612  53.2135  75.7760 0002115  33.1062 327.0062 15.08823317 36471,6917.931,95.439,541.26,538.3330000000002,0.0
52612.0,STARLINK-4002,PAYLOAD,2023-01-07 03:53:23,15.08825835,0.0002097,53.2136,75.4787,37.6296,322.4842,-0.00036651,-6.114e-05,0.0,0 STARLINK-4002,1 52612U 22052Q   23007.16207766 -.00006114  00000-0 -36651-3 0  9992,2 52612  53.2136  75.4787 0002097  37.6296 322.4842 15.08825835 36118,6917.924,95.438,541.239,538.3380000000002,0.0
52612.0,STARLINK-4002,PAYLOAD,2023-01-07 13:25:42,15.08832361,0.0002132,53.2135,73.6944,35.9813,324.1322,0.00039199,5.955e-05,0.0,0 STARLINK-4002,1 52612U 22052Q   23007.55952190  .00005955  00000-0  39199-3 0  9993,2 52612  53.2135  73.6944 0002132  35.9813 324.1322 15.08832361 36549,6917.904,95.438,541.244,538.294,0.0
52612.0,STARLINK-4002,PAYLOAD,2023-01-07 21:22:38,15.08836418,0.0002006,53.2132,72.2074,39.6077,320.5061,0.00088031,0.00013749,0.0,0 STARLINK-4002,1 52612U 22052Q   23007.89072466  .00013749  00000-0  88031-3 0  9998,2 52612  53.2132  72.2074 0002006  39.6077 320.5061 15.08836418 36220,6917.891,95.438,541.144,538.369,0.0
52612.0,STARLINK-4002,PAYLOAD,2023-01-08 10:05:43,15.08857712,0.0002084,53.2129,69.828,41.3677,318.7472,0.0011623,0.00018268,0.0,0 STARLINK-4002,1 52612U 22052Q   23008.42064183  .00018268  00000-0  11623-2 0  9998,2 52612  53.2129  69.8280 0002084  41.3677 318.7472 15.08857712 36673,6917.826,95.436,541.133,538.25,0.0
52612.0,STARLINK-4002,PAYLOAD,2023-01-08 21:13:25,15.08858971,0.0002066,53.213,67.7462,41.8976,318.2174,0.00072999,0.00011355,0.0,0 STARLINK-4002,1 52612U 22052Q   23008.88431844  .00011355  00000-0  72999-3 0  9994,2 52612  53.2130  67.7462 0002066  41.8976 318.2174 15.08858971 36370,6917.821999999999,95.436,541.117,538.258,0.0
52612.0,STARLINK-4002,PAYLOAD,2023-01-09 03:34:57,15.0885778,0.0002696,53.2128,66.5567,54.4517,305.6726,0.00064285,9.963e-05,0.0,0 STARLINK-4002,1 52612U 22052Q   23009.14927966  .00009963  00000-0  64285-3 0  9990,2 52612  53.2128  66.5567 0002696  54.4517 305.6726 15.08857780 36785,6917.826,95.436,541.556,537.826,0.0
52612.0,STARLINK-4002,PAYLOAD,2023-01-09 11:31:53,15.08851705,0.0002474,53.2129,65.0687,55.8639,304.2587,0.00037378,5.667e-05,0.0,0 STARLINK-4002,1 52612U 22052Q   23009.48047834  .00005667  00000-0  37378-3 0  9994,2 52612  53.2129  65.0687 0002474  55.8639 304.2587 15.08851705 36834,6917.845,95.437,541.4209999999998,537.998,0.0
52612.0,STARLINK-4002,PAYLOAD,2023-01-09 21:04:12,15.08845244,0.0002442,53.212,63.2847,54.3041,305.8178,0.00026709,3.966e-05,0.0,0 STARLINK-4002,1 52612U 22052Q   23009.87791853  .00003966  00000-0  26709-3 0  9990,2 52612  53.2120  63.2847 0002442  54.3041 305.8178 15.08845244 36529,6917.864000000001,95.437,541.419,538.04,0.0
52612.0,STARLINK-4002,PAYLOAD,2023-01-10 09:47:17,15.08837211,0.0002061,53.2126,60.9056,56.2054,303.9134,-5.9033000000000016e-06,-3.82e-06,0.0,0 STARLINK-4002,1 52612U 22052Q   23010.40783921 -.00000382  00000-0 -59033-5 0  9997,2 52612  53.2126  60.9056 0002061  56.2054 303.9134 15.08837211 36978,6917.889,95.438,541.18,538.328,0.0
52612.0,STARLINK-4002,PAYLOAD,2023-01-11 12:48:50,15.08843872,0.0001863,53.2123,55.8478,62.5459,297.5722,0.00011824,1.594e-05,0.0,0 STARLINK-4002,1 52612U 22052Q   23011.53391952  .00001594  00000-0  11824-3 0  9999,2 52612  53.2123  55.8478 0001863  62.5459 297.5722 15.08843872 36773,6917.8690000000015,95.437,541.0219999999998,538.445,0.0
52612.0,STARLINK-4002,PAYLOAD,2023-01-11 23:56:32,15.08836694,0.0001819,53.2126,53.7664,60.299,299.8183,0.00014362,1.998e-05,0.0,0 STARLINK-4002,1 52612U 22052Q   23011.99760386  .00001998  00000-0  14362-3 0  9998,2 52612  53.2126  53.7664 0001819  60.2990 299.8183 15.08836694 37216,6917.89,95.438,541.014,538.497,0.0
52612.0,STARLINK-4002,PAYLOAD,2023-01-12 09:28:51,15.08851262,0.0001791,53.2133,51.9841,61.1372,298.98,0.00030825,4.623e-05,0.0,0 STARLINK-4002,1 52612U 22052Q   23012.39503633  .00004623  00000-0  30825-3 0  9993,2 52612  53.2133  51.9841 0001791  61.1372 298.9800 15.08851262 37274,6917.846,95.437,540.95,538.472,0.0
52612.0,STARLINK-4002,PAYLOAD,2023-01-12 23:47:19,15.0883923,0.0001906,53.2121,49.3078,61.8419,298.2765,0.0001353,1.866e-05,0.0,0 STARLINK-4002,1 52612U 22052Q   23012.99120286  .00001866  00000-0  13530-3 0  9998,2 52612  53.2121  49.3078 0001906  61.8419 298.2765 15.08839230 37365,6917.883000000002,95.438,541.066,538.429,0.0
